{
    "links": {
        "self": "http://www.neowsapp.com/rest/v1/neo/3578825?api_key=iIulBulltgU6a56xZRHN4H3l9WmuAYTsLGpBGhQ2"
    },
    "id": "3578825",
    "neo_reference_id": "3578825",
    "name": "(2011 SC16)",
    "designation": "2011 SC16",
    "nasa_jpl_url": "http://ssd.jpl.nasa.gov/sbdb.cgi?sstr=3578825",
    "absolute_magnitude_h": 27.4,
    "estimated_diameter": {
        "kilometers": {
            "estimated_diameter_min": 0.0088014652,
            "estimated_diameter_max": 0.0196806745
        },
        "meters": {
            "estimated_diameter_min": 8.801465209,
            "estimated_diameter_max": 19.6806745089
        },
        "miles": {
            "estimated_diameter_min": 0.0054689752,
            "estimated_diameter_max": 0.0122290004
        },
        "feet": {
            "estimated_diameter_min": 28.8761991163,
            "estimated_diameter_max": 64.5691441559
        }
    },
    "is_potentially_hazardous_asteroid": false,
    "close_approach_data": [
        {
            "close_approach_date": "2011-09-25",
            "close_approach_date_full": "2011-Sep-25 10:54",
            "epoch_date_close_approach": 1316948040000,
            "relative_velocity": {
                "kilometers_per_second": "4.3592349408",
                "kilometers_per_hour": "15693.2457869226",
                "miles_per_hour": "9751.172639102"
            },
            "miss_distance": {
                "astronomical": "0.045997758",
                "lunar": "17.893127862",
                "kilometers": "6881166.62157546",
                "miles": "4275758.669082948"
            },
            "orbiting_body": "Earth"
        },
        {
            "close_approach_date": "2078-10-27",
            "close_approach_date_full": "2078-Oct-27 05:38",
            "epoch_date_close_approach": 3434074680000,
            "relative_velocity": {
                "kilometers_per_second": "11.2402058187",
                "kilometers_per_hour": "40464.7409474168",
                "miles_per_hour": "25143.2163959102"
            },
            "miss_distance": {
                "astronomical": "0.3301091893",
                "lunar": "128.4124746377",
                "kilometers": "49383631.586706791",
                "miles": "30685565.7593880758"
            },
            "orbiting_body": "Earth"
        }
    ],
    "orbital_data": {
        "orbit_id": "4",
        "orbit_determination_date": "2017-04-06 08:52:49",
        "first_observation_date": "2011-09-19",
        "last_observation_date": "2011-09-21",
        "data_arc_in_days": 2,
        "observations_used": 22,
        "orbit_uncertainty": "8",
        "minimum_orbit_intersection": ".0459991",
        "jupiter_tisserand_invariant": "4.853",
        "epoch_osculation": "2455824.5",
        "eccentricity": ".2224043420399704",
        "semi_major_axis": "1.345002127930085",
        "inclination": "6.682189984455341",
        "ascending_node_longitude": "178.9983786897438",
        "orbital_period": "569.7480979781983",
        "perihelion_distance": "1.045867814625434",
        "perihelion_argument": "192.606383729026",
        "aphelion_distance": "1.644136441234735",
        "perihelion_time": "2455839.460811153693",
        "mean_anomaly": "350.5468889945543",
        "mean_motion": ".6318581865871812",
        "equinox": "J2000",
        "orbit_class": {
            "orbit_class_type": "AMO",
            "orbit_class_description": "Near-Earth asteroid orbits similar to that of 1221 Amor",
            "orbit_class_range": "1.017 AU < q (perihelion) < 1.3 AU"
        }
    },
    "is_sentry_object": false
}